IRIDIUM 921             
1 24873U 97034E   24199.72127435  .00044467  00000+0  10549-2 0  9998
2 24873  86.3801 272.9719 0006014 128.0267 232.1531 15.41522794479889
IRIDIUM 26              
1 24903U 97043A   24199.70130971  .00000871  00000+0  29079-3 0  9999
2 24903  86.3938 250.9502 0002449  95.8085 264.3391 14.36439594408710
IRIDIUM 22              
1 24907U 97043E   24199.71088041  .00000813  00000+0  27694-3 0  9991
2 24907  86.3942 254.2080 0002227  93.0130 267.1321 14.35326656408786
DUMMY MASS 1            
1 24925U 97048A   24199.75965631  .00001002  00000+0  11078-3 0  9999
2 24925  86.3347 289.8628 0004634 242.6741 117.4012 14.86289545455441
DUMMY MASS 2            
1 24926U 97048B   24199.80125856  .00001000  00000+0  11126-3 0  9995
2 24926  86.3349 291.3925 0005283 259.7555 100.3074 14.86047315455238
IRIDIUM 29              
1 24944U 97051A   24199.77390431  .00000963  00000+0  32644-3 0  9993
2 24944  86.3951 284.0808 0001955  94.3291 265.8130 14.35778989405279
IRIDIUM 33              
1 24946U 97051C   24199.75972816  .00000684  00000+0  23604-3 0  9992
2 24946  86.3866 283.3362 0010102  90.8453 269.3900 14.34420742404798
IRIDIUM 28              
1 24948U 97051E   24199.75751303  .00000930  00000+0  30900-3 0  9991
2 24948  86.3955 281.7928 0002646  95.4807 264.6692 14.36733251405811
